INTELSAT 902 (IS-902)   
1 26900U 01039A   26145.28121448 -.00000284  00000+0  00000+0 0  9991
2 26900   6.0606  72.0568 0004501 347.8977 234.0452  1.00269837 90465
INTELSAT 904 (IS-904)   
1 27380U 02007A   26145.26531503 -.00000226  00000+0  00000+0 0  9991
2 27380   6.8656  69.4567 0007340 351.1058 246.3123  1.00274532 51536
DIRECTV 5 (TEMPO 1)     
1 27426U 02023A   26145.47578338 -.00000057  00000+0  00000+0 0  9992
2 27426   4.8223  75.5882 0003355 347.3018 241.3467  1.00272123 87896
INTELSAT 905 (IS-905)   
1 27438U 02027A   26145.48587427  .00000093  00000+0  00000+0 0  9998
2 27438   6.6992  70.0710 0004069   3.6256 207.0839  1.00273871 51132
GALAXY 3C (G-3C)        
1 27445U 02030A   26145.46929317 -.00000153  00000+0  00000+0 0  9994
2 27445   3.6739  78.2772 0001780  27.6420 211.2218  1.00271429 46263
INTELSAT 906 (IS-906)   
1 27513U 02041A   26145.38257727  .00000012  00000+0  00000+0 0  9995
2 27513   5.7460  73.1970 0004632 347.4952  24.1496  1.00271558 86805
GALAXY 13 (HORIZONS-1)  
1 27954U 03044A   26145.60781775  .00000132  00000+0  00000+0 0  9991
2 27954   1.3614  84.1247 0002150 338.2604 249.6276  1.00273136 46340
INTELSAT 10-02          
1 28358U 04022A   26145.58346844 -.00000012  00000+0  00000+0 0  9996
2 28358   0.0344  58.3773 0000184 110.9270 282.9307  1.00271443 80332
DIRECTV 8               
1 28659U 05019A   26145.56015499  .00000000  00000+0  00000+0 0  9990
2 28659   0.0158 343.4900 0003258  88.7682 253.4894  1.00272345 76840
GALAXY 28 (G-28)        
1 28702U 05022A   26145.29938562 -.00000201  00000+0  00000+0 0  9992
2 28702   3.2423  79.2096 0003151 339.1381 265.2085  1.00271053 51740
GALAXY 16 (G-16)        
1 29236U 06023A   26145.56414168 -.00000128  00000+0  00000+0 0  9996
2 29236   0.0637 105.6492 0002658 315.7200 285.8782  1.00272229 72741
DIRECTV 9S              
1 29494U 06043A   26145.56370834 -.00000113  00000+0  00000+0 0  9999
2 29494   2.3647  81.1646 0004862 354.9190 268.8038  1.00271573 51152
GALAXY 17 (G-17)        
1 31307U 07016B   26145.56691502 -.00000206  00000+0  00000+0 0  9997
2 31307   2.9174  80.1753 0004533   1.4257 280.6347  1.00272401 69571
INTELSAT 11 (IS-11)     
1 32253U 07044B   26145.55703498  .00000067  00000+0  00000+0 0  9990
2 32253   3.5088  78.9347 0000795  80.7809 149.1816  0.99049115 68228
HORIZONS-2              
1 32388U 07063B   26145.56916837 -.00000254  00000+0  00000+0 0  9993
2 32388   2.5461  80.8939 0003936 344.0964 309.2845  1.00272468 67589
DIRECTV 11              
1 32729U 08013A   26145.56414168 -.00000126  00000+0  00000+0 0  9996
2 32729   0.0101 118.8125 0000436 264.0904 324.1458  1.00272102 45361
GALAXY 18 (G-18)        
1 32951U 08024A   26145.33517001  .00000024  00000+0  00000+0 0  9996
2 32951   0.0333 110.8540 0003047 319.2028 170.5133  1.00270243 45625
INTELSAT 25 (IS-25)     
1 33153U 08034A   26145.27163716  .00000062  00000+0  00000+0 0  9997
2 33153   2.6514  80.5777 0001482   9.8627 114.2285  0.99033116 65462
GALAXY 19 (G-19)        
1 33376U 08045A   26145.01294635 -.00000142  00000+0  00000+0 0  9993
2 33376   0.0471 104.5742 0002912 326.5315  79.1700  1.00273197 64675
FM-5                    
1 35493U 09034A   26145.42406005 -.00000202  00000+0  00000+0 0  9992
2 35493   0.0123 288.7843 0000655   3.5620  17.1770  1.00272520 46411
INTELSAT 14 (IS-14)     
1 36097U 09064A   26145.43220676 -.00000275  00000+0  00000+0 0  9995
2 36097   0.0109 304.5609 0002509 129.0733 279.9840  1.00270625 60373
INTELSAT 15 (IS-15)     
1 36106U 09067A   26145.38673728 -.00000186  00000+0  00000+0 0  9994
2 36106   0.0381 102.8269 0002249 317.6103  46.9087  1.00271748 41005
DIRECTV 12              
1 36131U 09075A   26145.00781575  .00000000  00000+0  00000+0 0  9994
2 36131   0.0128  97.4502 0000326 275.2792 129.9570  1.00269038 46326
INTELSAT 16 (IS-16)     
1 36397U 10006A   26145.12683769 -.00000247  00000+0  00000+0 0  9997
2 36397   0.0145 298.4165 0002722 160.1693 113.5979  1.00270593 59426
XM-5                    
1 37185U 10053A   26145.56093499 -.00000024  00000+0  00000+0 0  9991
2 37185   0.0625 273.5060 0003274 278.6796 137.7052  1.00272820 57259
INTELSAT 17 (IS-17)     
1 37238U 10065B   26145.52553844 -.00000003  00000+0  00000+0 0  9991
2 37238   0.0060 285.7198 0002519 136.4710  76.1252  1.00272802 53025
INTELSAT 28 (IS-28)     
1 37392U 11016A   26145.43165093 -.00000226  00000+0  00000+0 0  9991
2 37392   1.7496  82.8877 0003909 343.1940 300.6189  1.00270638 53055
INTELSAT 18 (IS-18)     
1 37834U 11056A   26145.54805939  .00000000  00000+0  00000+0 0  9997
2 37834   0.0171 321.9737 0002065 107.8508 190.6080  1.00270564 53580
INTELSAT 22 (IS-22)     
1 38098U 12011A   26145.38413727 -.00000060  00000+0  00000+0 0  9991
2 38098   0.0226  72.5869 0001719 349.8395  30.9535  1.00272523  6964
INTELSAT 19 (IS-19)     
1 38356U 12030A   26145.62633275 -.00000057  00000+0  00000+0 0  9994
2 38356   0.0187 307.8296 0003067 119.7290 207.1366  1.00272367 50225
INTELSAT 20 (IS-20)     
1 38740U 12043A   26145.38335727 -.00000026  00000+0  00000+0 0  9995
2 38740   0.0046 145.5359 0001686  33.6660 270.2831  1.00272060 50513
INTELSAT 21 (IS-21)     
1 38749U 12045A   26145.42969340 -.00000286  00000+0  00000+0 0  9993
2 38749   0.0175 338.1781 0001964  93.4579 268.0711  1.00271812 50297
INTELSAT 23 (IS-23)     
1 38867U 12057A   26145.43064675 -.00000286  00000+0  00000+0 0  9995
2 38867   0.0112 313.3224 0000359 192.4297 199.2991  1.00275735 49729
FM-6                    
1 39360U 13058A   26145.56067499 -.00000017  00000+0  00000+0 0  9999
2 39360   0.0041 353.6076 0001746 141.8756 193.1440  1.00272326 45844
INTELSAT 30 (IS-30)     
1 40271U 14062A   26145.42232670 -.00000152  00000+0  00000+0 0  9998
2 40271   0.0273  47.3487 0001030 337.6504 275.0005  1.00272912  6563
DIRECTV 14              
1 40333U 14078B   26144.56598986 -.00000130  00000+0  00000+0 0  9999
2 40333   0.0100   1.8500 0000248 205.2209 139.6088  1.00272307 41804
DIRECTV 15              
1 40663U 15026A   26145.49208495 -.00000104  00000+0  00000+0 0  9996
2 40663   0.0173 338.5900 0000211  98.7807 239.9759  1.00272843 40233
SKY MEXICO-1            
1 40664U 15026B   26144.85515777 -.00000237  00000+0  00000+0 0  9997
2 40664   0.0393 113.1161 0002053 322.6663  35.7225  1.00270108 40220
INTELSAT 34 (IS-34)     
1 40874U 15039A   26144.85983779 -.00000289  00000+0  00000+0 0  9992
2 40874   0.0097 314.0541 0000602  28.1116 154.3402  1.00271651 39404
INTELSAT 31 (IS-31)     
1 41581U 16035A   26144.56676986 -.00000155  00000+0  00000+0 0  9994
2 41581   0.0128 255.2233 0001209  17.5633  78.3655  1.00273589 36447
INTELSAT 36 (IS-36)     
1 41747U 16053A   26144.95566997 -.00000027  00000+0  00000+0 0  9999
2 41747   0.0120 348.4799 0001469 337.3045 329.3146  1.00269212 35725
INTELSAT 32E (IS-32E)   
1 41945U 17007B   26145.20331358 -.00000271  00000+0  00000+0 0  9990
2 41945   0.0176 331.4767 0000275 344.3089 317.0214  1.00270562 33990
INTELSAT 35E (IS-35E)   
1 42818U 17041A   26145.40235706  .00000000  00000+0  00000+0 0  9999
2 42818   0.0177 317.5716 0002259 105.1717 290.6102  1.00269983 32586
INTELSAT 37E (IS-37E)   
1 42950U 17059A   26145.36628385 -.00000142  00000+0  00000+0 0  9997
2 42950   0.0098 298.3886 0002466 138.6231 279.8134  1.00271647 31832
AZERSPACE 2 (IS-38)     
1 43632U 18074A   26145.59265514  .00000136  00000+0  00000+0 0  9991
2 43632   0.0185 315.8802 0001557 108.7712  76.9867  1.00271564 28228
HORIZONS-3E             
1 43633U 18074B   26145.26071906 -.00000032  00000+0  00000+0 0  9992
2 43633   0.0063  71.0113 0000763 207.4134 227.2697  1.00272733 28112
AT&T T-16               
1 44333U 19034A   26145.56379501 -.00000116  00000+0  00000+0 0  9995
2 44333   0.0349 117.2235 0000641 128.7682  99.2706  1.00268949 25404
INTELSAT 39 (IS-39)     
1 44476U 19049B   26145.59577515  .00000033  00000+0  00000+0 0  9994
2 44476   0.0157 311.5451 0000519  16.9758 191.0831  1.00271578 24900
GALAXY 30 (G-30)        
1 46114U 20056C   26145.51919817  .00000036  00000+0  00000+0 0  9995
2 46114   0.0162 338.3258 0002273  85.0611 241.6450  1.00273609 21063
GALAXY 33 (G-33)        
1 54026U 22128A   26144.98704345  .00000076  00000+0  00000+0 0  9990
2 54026   0.0381  86.5318 0001910 337.4842  40.8987  1.00272659 13512
GALAXY 34 (G-34)        
1 54027U 22128B   26145.55824831  .00000058  00000+0  00000+0 0  9998
2 54027   0.0097 285.4821 0001922 142.2041 247.4309  1.00276304 13684
GALAXY 31 (G-31)        
1 54243U 22153A   26145.41721334  .00000012  00000+0  00000+0 0  9995
2 54243   0.0265 110.9887 0001415 310.7626 210.4475  1.00272161  6901
GALAXY 32 (G-32)        
1 54244U 22153B   26145.56570169 -.00000175  00000+0  00000+0 0  9991
2 54244   0.0092 325.5804 0002509  62.9525 327.2744  1.00271529 12913
GALAXY 35 (G-35)        
1 54741U 22170A   26145.56535501 -.00000163  00000+0  00000+0 0  9990
2 54741   0.0409 108.4211 0002102 316.7023 288.4485  1.00271797 12668
GALAXY 36 (G-36)        
1 54742U 22170B   26145.56613502 -.00000186  00000+0  00000+0 0  9994
2 54742   0.0088 244.3225 0002720 188.1489 285.4864  1.00271854 12549
GALAXY 37 (G-37)        
1 57493U 23112A   26145.51919817  .00000047  00000+0  00000+0 0  9995
2 57493   0.0178 328.1582 0002025  88.1946 246.6659  1.00271889 10319
